{
  "group_major": "Last 30 Days",
  "data": {
    "Last 30 Days' Launches": [
      {
        "catalogNumber": "62143",
        "name": "STARLINK-32485",
        "tleLine1": "1 62143U 24224E   24348.16668981 -.01009150  00000+0 -60337-2 0  9994",
        "tleLine2": "2 62143  42.9996 201.4767 0001750 280.9400 342.7217 15.79563192  2837",
        "orbitClass": [
          "mediumEarthOrbit",
          "circularOrbit"
        ],
        "country": "USA",
        "group_minor": "last-30-days"
      },
      {
        "catalogNumber": "62144",
        "name": "STARLINK-32388",
        "tleLine1": "1 62144U 24224F   24348.16668981 -.01020586  00000+0 -61132-2 0  9995",
        "tleLine2": "2 62144  42.9996 201.4710 0001898 278.0524 347.7761 15.79552592  3263",
        "orbitClass": [
          "mediumEarthOrbit",
          "circularOrbit"
        ],
        "country": "USA",
        "group_minor": "last-30-days"
      },
      {
        "catalogNumber": "62145",
        "name": "STARLINK-32374",
        "tleLine1": "1 62145U 24224G   24348.16668981 -.01071560  00000+0 -63424-2 0  9990",
        "tleLine2": "2 62145  42.9995 201.4598 0001820 280.1891 350.0670 15.79522299  3260",
        "orbitClass": [
          "mediumEarthOrbit",
          "circularOrbit"
        ],
        "country": "USA",
        "group_minor": "last-30-days"
      },
      {
        "catalogNumber": "62146",
        "name": "STARLINK-32384",
        "tleLine1": "1 62146U 24224H   24348.16668981 -.01057007  00000+0 -62425-2 0  9991",
        "tleLine2": "2 62146  42.9997 201.4654 0001871 279.8987 348.1650 15.79537330  3261",
        "orbitClass": [
          "mediumEarthOrbit",
          "circularOrbit"
        ],
        "country": "USA",
        "group_minor": "last-30-days"
      },
      {
        "catalogNumber": "62147",
        "name": "STARLINK-32295",
        "tleLine1": "1 62147U 24224J   24347.91667824 -.01062273  00000+0 -61278-2 0  9995",
        "tleLine2": "2 62147  42.9996 202.9831 0001606 284.7460   4.0950 15.80060821  3136",
        "orbitClass": [
          "mediumEarthOrbit",
          "circularOrbit"
        ],
        "country": "USA",
        "group_minor": "last-30-days"
      },
      {
        "catalogNumber": "62148",
        "name": "STARLINK-32479",
        "tleLine1": "1 62148U 24224K   24348.16668981 -.01093699  00000+0 -65146-2 0  9993",
        "tleLine2": "2 62148  42.9994 201.4423 0001940 276.1866   0.8734 15.79432635  3208",
        "orbitClass": [
          "mediumEarthOrbit",
          "circularOrbit"
        ],
        "country": "USA",
        "group_minor": "last-30-days"
      },
      {
        "catalogNumber": "62149",
        "name": "STARLINK-32468",
        "tleLine1": "1 62149U 24224L   24348.16668981 -.01086721  00000+0 -64542-2 0  9991",
        "tleLine2": "2 62149  42.9995 201.4488 0001926 278.2800 356.3687 15.79480535  3103",
        "orbitClass": [
          "mediumEarthOrbit",
          "circularOrbit"
        ],
        "country": "USA",
        "group_minor": "last-30-days"
      },
      {
        "catalogNumber": "62150",
        "name": "STARLINK-32629",
        "tleLine1": "1 62150U 24224M   24347.91667824 -.01110576  00000+0 -64650-2 0  9996",
        "tleLine2": "2 62150  42.9996 202.9649 0001686 281.9957  14.0367 15.79970281  3248",
        "orbitClass": [
          "mediumEarthOrbit",
          "circularOrbit"
        ],
        "country": "USA",
        "group_minor": "last-30-days"
      },
      {
        "catalogNumber": "62151",
        "name": "STARLINK-32644",
        "tleLine1": "1 62151U 24224N   24348.16668981 -.01123391  00000+0 -67566-2 0  9998",
        "tleLine2": "2 62151  42.9995 201.4240 0001843 280.3006   3.9802 15.79289570  3269",
        "orbitClass": [
          "mediumEarthOrbit",
          "circularOrbit"
        ],
        "country": "USA",
        "group_minor": "last-30-days"
      },
      {
        "catalogNumber": "62152",
        "name": "STARLINK-32623",
        "tleLine1": "1 62152U 24224P   24348.16668981 -.01114395  00000+0 -66836-2 0  9992",
        "tleLine2": "2 62152  42.9994 201.4300 0001875 279.5500   2.3919 15.79330417  3203",
        "orbitClass": [
          "mediumEarthOrbit",
          "circularOrbit"
        ],
        "country": "USA",
        "group_minor": "last-30-days"
      },
      {
        "catalogNumber": "62153",
        "name": "STARLINK-32639",
        "tleLine1": "1 62153U 24224Q   24348.16668981 -.01126072  00000+0 -67710-2 0  9990",
        "tleLine2": "2 62153  42.9994 201.4191 0001795 279.9786   6.1990 15.79301661  3102",
        "orbitClass": [
          "mediumEarthOrbit",
          "circularOrbit"
        ],
        "country": "USA",
        "group_minor": "last-30-days"
      },
      {
        "catalogNumber": "62154",
        "name": "STARLINK-32625",
        "tleLine1": "1 62154U 24224R   24348.16668981 -.01133659  00000+0 -68353-2 0  9994",
        "tleLine2": "2 62154  42.9992 201.4129 0001839 278.6715   9.8489 15.79258736  3151",
        "orbitClass": [
          "mediumEarthOrbit",
          "circularOrbit"
        ],
        "country": "USA",
        "group_minor": "last-30-days"
      },
      {
        "catalogNumber": "62155",
        "name": "STARLINK-32635",
        "tleLine1": "1 62155U 24224S   24347.91667824 -.01147051  00000+0 -67410-2 0  9996",
        "tleLine2": "2 62155  42.9992 202.9356 0001677 282.5384  24.8116 15.79846617  3083",
        "orbitClass": [
          "mediumEarthOrbit",
          "circularOrbit"
        ],
        "country": "USA",
        "group_minor": "last-30-days"
      },
      {
        "catalogNumber": "62156",
        "name": "STARLINK-32532",
        "tleLine1": "1 62156U 24224T   24348.16668981 -.01163036  00000+0 -70532-2 0  9990",
        "tleLine2": "2 62156  42.9991 201.4012 0001895 279.4307  13.6211 15.79198366  3104",
        "orbitClass": [
          "mediumEarthOrbit",
          "circularOrbit"
        ],
        "country": "USA",
        "group_minor": "last-30-days"
      },
      {
        "catalogNumber": "62157",
        "name": "STARLINK-32503",
        "tleLine1": "1 62157U 24224U   24348.16668981 -.01186930  00000+0 -72313-2 0  9998",
        "tleLine2": "2 62157  42.9991 201.3955 0001963 278.4372  17.0063 15.79151795  2834",
        "orbitClass": [
          "mediumEarthOrbit",
          "circularOrbit"
        ],
        "country": "USA",
        "group_minor": "last-30-days"
      },
      {
        "catalogNumber": "62158",
        "name": "STARLINK-32508",
        "tleLine1": "1 62158U 24224V   24348.16668981 -.01206439  00000+0 -73891-2 0  9998",
        "tleLine2": "2 62158  42.9992 201.3888 0001975 277.3295  20.6201 15.79081229  3273",
        "orbitClass": [
          "mediumEarthOrbit",
          "circularOrbit"
        ],
        "country": "USA",
        "group_minor": "last-30-days"
      },
      {
        "catalogNumber": "62159",
        "name": "STARLINK-32524",
        "tleLine1": "1 62159U 24224W   24348.16668981 -.01217807  00000+0 -74859-2 0  9995",
        "tleLine2": "2 62159  42.9992 201.3833 0001859 279.9260  20.3548 15.79029497  3107",
        "orbitClass": [
          "mediumEarthOrbit",
          "circularOrbit"
        ],
        "country": "USA",
        "group_minor": "last-30-days"
      },
      {
        "catalogNumber": "62160",
        "name": "STARLINK-32484",
        "tleLine1": "1 62160U 24224X   24348.16668981 -.01221459  00000+0 -75182-2 0  9995",
        "tleLine2": "2 62160  42.9991 201.3780 0001995 277.5477  24.8401 15.79007731  3265",
        "orbitClass": [
          "mediumEarthOrbit",
          "circularOrbit"
        ],
        "country": "USA",
        "group_minor": "last-30-days"
      },
      {
        "catalogNumber": "62161",
        "name": "STARLINK-32497",
        "tleLine1": "1 62161U 24224Y   24347.91667824 -.01246723  00000+0 -74742-2 0  9995",
        "tleLine2": "2 62161  42.9991 202.8948 0001818 280.8836  42.5600 15.79640027  3245",
        "orbitClass": [
          "mediumEarthOrbit",
          "circularOrbit"
        ],
        "country": "USA",
        "group_minor": "last-30-days"
      },
      {
        "catalogNumber": "62162",
        "name": "STARLINK-32526",
        "tleLine1": "1 62162U 24224Z   24347.91667824 -.01236946  00000+0 -74016-2 0  9996",
        "tleLine2": "2 62162  42.9992 202.9007 0001815 281.5692  39.7232 15.79658491  3242",
        "orbitClass": [
          "mediumEarthOrbit",
          "circularOrbit"
        ],
        "country": "USA",
        "group_minor": "last-30-days"
      },
      {
        "catalogNumber": "62165",
        "name": "STARLINK-32523",
        "tleLine1": "1 62165U 24225C   24348.16668981 -.01458504  00000+0 -19542-1 0  9991",
        "tleLine2": "2 62165  70.0002 231.8114 0003506 274.8497 281.1133 15.60680973  2002",
        "orbitClass": [
          "mediumEarthOrbit",
          "circularOrbit"
        ],
        "country": "Unknown",
        "group_minor": "last-30-days"
      },
      {
        "catalogNumber": "62166",
        "name": "STARLINK-32551",
        "tleLine1": "1 62166U 24225D   24348.16668981 -.01458493  00000+0 -19542-1 0  9999",
        "tleLine2": "2 62166  70.0002 231.8136 0003504 275.1616 278.8856 15.60680785  2008",
        "orbitClass": [
          "mediumEarthOrbit",
          "circularOrbit"
        ],
        "country": "Unknown",
        "group_minor": "last-30-days"
      },
      {
        "catalogNumber": "62167",
        "name": "STARLINK-32506",
        "tleLine1": "1 62167U 24225E   24348.16668981 -.01457947  00000+0 -19534-1 0  9994",
        "tleLine2": "2 62167  70.0002 231.8067 0003503 271.8916 287.9039 15.60680605  2002",
        "orbitClass": [
          "mediumEarthOrbit",
          "circularOrbit"
        ],
        "country": "Unknown",
        "group_minor": "last-30-days"
      }
    ]
  }
}